ORBCOMM FM37            
1 33064U 08031E   24131.62734639  .00004059  00000+0  60695-3 0  9995
2 33064  48.4399  92.5966 0005473  89.8532  80.4239 14.76398819854498
ORBCOMM FM40            
1 33065U 08031F   24131.62357468  .00004656  00000+0  67106-3 0  9994
2 33065  48.4425  81.9870 0006792  99.7692  70.6157 14.77710430854530
VESSELSAT 1             
1 37840U 11058C   24131.07712467  .00000503  00000+0  13044-3 0  9994
2 37840  19.9636  12.7280 0013758  73.2756 286.9157 14.11149552649293
ORBCOMM FM109           
1 40086U 14040A   24131.23267867  .00001864  00000+0  45155-3 0  9990
2 40086  47.0028 117.1986 0002717 274.1743  85.8831 14.56582427522409
ORBCOMM FM107           
1 40087U 14040B   24131.33552452  .00001957  00000+0  47206-3 0  9991
2 40087  47.0045 117.6804 0001935 255.0990 104.9681 14.56591872522372
ORBCOMM FM106           
1 40088U 14040C   24131.53289471  .00002320  00000+0  44160-3 0  9993
2 40088  47.0616 329.8830 0017652 355.9672   4.1073 14.67006731524301
ORBCOMM FM111           
1 40089U 14040D   24131.56227383  .00005238  00000+0  67700-3 0  9997
2 40089  47.0032 230.7471 0031892  69.2757 291.1552 14.81748273530426
ORBCOMM FM104           
1 40090U 14040E   24131.44359161  .00001199  00000+0  31326-3 0  9993
2 40090  47.0040 146.0820 0016571 168.6969 191.4291 14.55111097521937
